NORAD_CAT_ID,OBJECT_NAME,OBJECT_TYPE,EPOCH,MEAN_MOTION,ECCENTRICITY,INCLINATION,RA_OF_ASC_NODE,ARG_OF_PERICENTER,MEAN_ANOMALY,BSTAR,MEAN_MOTION_DOT,MEAN_MOTION_DDOT,TLE_LINE0,TLE_LINE1,TLE_LINE2,SEMIMAJOR_AXIS,PERIOD,APOGEE,PERIGEE,DECAYED
53264.0,STARLINK-3950,PAYLOAD,2022-11-25 23:58:23,15.08837179,0.0001465,53.2189,179.7256,70.0747,290.0403,6.9373e-05,8.16e-06,0.0,0 STARLINK-3950,1 53264U 22086Y   22329.99888761  .00000816  00000-0  69373-4 0  9999,2 53264  53.2189 179.7256 0001465  70.0747 290.0403 15.08837179 19779,6917.889,95.438,540.7669999999998,538.741,0.0
53264.0,STARLINK-3950,PAYLOAD,2022-11-26 20:38:24,15.08843845,0.0001453,53.2186,175.8602,69.1697,290.9451,8.167399999999999e-05,1.012e-05,0.0,0 STARLINK-3950,1 53264U 22086Y   22330.86000224  .00001012  00000-0  81674-4 0  9994,2 53264  53.2186 175.8602 0001453  69.1697 290.9451 15.08843845 20083,6917.869000000002,95.437,540.739,538.7280000000002,0.0
53264.0,STARLINK-3950,PAYLOAD,2022-11-26 23:49:10,15.08845686,0.0001443,53.2184,175.2655,68.3035,291.8111,5.4692e-05,5.83e-06,0.0,0 STARLINK-3950,1 53264U 22086Y   22330.99248109  .00000583  00000-0  54692-4 0  9996,2 53264  53.2184 175.2655 0001443  68.3035 291.8111 15.08845686 19928,6917.863,95.437,540.726,538.73,0.0
53264.0,STARLINK-3950,PAYLOAD,2022-11-27 20:29:11,15.088371900000002,0.0001469,53.2184,171.3999,68.6513,291.4636,9.0521e-05,1.153e-05,0.0,0 STARLINK-3950,1 53264U 22086Y   22331.85360510  .00001153  00000-0  90521-4 0  9998,2 53264  53.2184 171.3999 0001469  68.6513 291.4636 15.08837190 20233,6917.889,95.438,540.77,538.738,0.0
53264.0,STARLINK-3950,PAYLOAD,2022-11-27 22:04:35,15.08831573,0.0001447,53.2182,171.1026,67.6736,292.441,3.9987e-05,3.48e-06,0.0,0 STARLINK-3950,1 53264U 22086Y   22331.91985024  .00000348  00000-0  39987-4 0  9992,2 53264  53.2182 171.1026 0001447  67.6736 292.4410 15.08831573 20063,6917.906,95.438,540.7719999999998,538.77,0.0
53264.0,STARLINK-3950,PAYLOAD,2022-11-28 12:23:03,15.0883496,0.0001437,53.2182,168.4265,67.4475,292.6669,3.5588e-05,2.78e-06,0.0,0 STARLINK-3950,1 53264U 22086Y   22332.51601036  .00000278  00000-0  35588-4 0  9992,2 53264  53.2182 168.4265 0001437  67.4475 292.6669 15.08834960 20335,6917.896,95.438,540.755,538.7669999999998,0.0
53264.0,STARLINK-3950,PAYLOAD,2022-11-28 23:30:45,15.08838392,0.0001448,53.2183,166.3451,66.9207,293.1938,1.0748e-05,-1.17e-06,0.0,0 STARLINK-3950,1 53264U 22086Y   22332.97968938 -.00000117  00000-0  10748-4 0  9993,2 53264  53.2183 166.3451 0001448  66.9207 293.1938 15.08838392 20225,6917.885,95.438,540.752,538.749,0.0
53264.0,STARLINK-3950,PAYLOAD,2022-11-29 12:13:50,15.08839514,0.0001395999999999,53.2189,163.9662,70.1464,289.9678,4.3047e-05,3.97e-06,0.0,0 STARLINK-3950,1 53264U 22086Y   22333.50960821  .00000397  00000-0  43047-4 0  9993,2 53264  53.2189 163.9662 0001396  70.1464 289.9678 15.08839514 20481,6917.882,95.438,540.7130000000002,538.781,0.0
53264.0,STARLINK-3950,PAYLOAD,2022-11-29 13:49:13,15.08835886,0.0001408,53.2187,163.6689,70.6429,289.4715,0.00011149,1.487e-05,0.0,0 STARLINK-3950,1 53264U 22086Y   22333.57584823  .00001487  00000-0  11149-3 0  9992,2 53264  53.2187 163.6689 0001408  70.6429 289.4715 15.08835886 20491,6917.893,95.438,540.732,538.784,0.0
53264.0,STARLINK-3950,PAYLOAD,2022-11-30 05:43:04,15.08840955,0.0001434,53.2186,160.6954,69.3923,290.7223,0.00013223,1.817e-05,0.0,0 STARLINK-3950,1 53264U 22086Y   22334.23824617  .00001817  00000-0  13223-3 0  9996,2 53264  53.2186 160.6954 0001434  69.3923 290.7223 15.08840955 20419,6917.877,95.437,540.734,538.75,0.0
53264.0,STARLINK-3950,PAYLOAD,2022-11-30 13:40:00,15.08843592,0.000146,53.2188,159.2087,69.9501,290.1648,0.00012474,1.698e-05,0.0,0 STARLINK-3950,1 53264U 22086Y   22334.56944491  .00001698  00000-0  12474-3 0  9999,2 53264  53.2188 159.2087 0001460  69.9501 290.1648 15.08843592 20649,6917.869000000002,95.437,540.744,538.724,0.0
53264.0,STARLINK-3950,PAYLOAD,2022-12-01 11:55:23,15.08843441,0.0001528,53.219,155.0467,71.0963,289.0194,7.3982e-05,8.900000000000001e-06,0.0,0 STARLINK-3950,1 53264U 22086Y   22335.49680430  .00000890  00000-0  73982-4 0  9997,2 53264  53.2190 155.0467 0001528  71.0963 289.0194 15.08843441 20780,6917.87,95.437,540.7919999999998,538.678,0.0
53264.0,STARLINK-3950,PAYLOAD,2022-12-01 18:16:56,15.08839284,0.0001594,53.2193,153.8567,71.462,288.6545,1.3918e-05,-6.7e-07,0.0,0 STARLINK-3950,1 53264U 22086Y   22335.76176844 -.00000067  00000-0  13918-4 0  9996,2 53264  53.2193 153.8567 0001594  71.4620 288.6545 15.08839284 20647,6917.8830000000025,95.438,540.85,538.645,0.0
53264.0,STARLINK-3950,PAYLOAD,2022-12-02 11:46:10,15.08842482,0.0001419999999999,53.2184,150.5848,70.1386,289.9759,1.7768e-05,-5e-08,0.0,0 STARLINK-3950,1 53264U 22086Y   22336.49040499 -.00000005  00000-0  17768-4 0  9992,2 53264  53.2184 150.5848 0001420  70.1386 289.9759 15.08842482 20933,6917.873000000001,95.437,540.72,538.755,0.0
53264.0,STARLINK-3950,PAYLOAD,2022-12-02 18:07:43,15.08843647,0.0001408,53.2185,149.3956,68.8422,291.272,3.3217e-05,2.41e-06,0.0,0 STARLINK-3950,1 53264U 22086Y   22336.75536369  .00000241  00000-0  33217-4 0  9995,2 53264  53.2185 149.3956 0001408  68.8422 291.2720 15.08843647 20973,6917.869000000002,95.437,540.7080000000002,538.76,0.0
53264.0,STARLINK-3950,PAYLOAD,2022-12-03 05:15:25,15.08846198,0.0001248,53.2185,147.3141,85.2204,274.8931,3.0779e-05,2.02e-06,0.0,0 STARLINK-3950,1 53264U 22086Y   22337.21904006  .00000202  00000-0  30779-4 0  9991,2 53264  53.2185 147.3141 0001248  85.2204 274.8931 15.08846198 20863,6917.861,95.437,540.59,538.863,0.0
53264.0,STARLINK-3950,PAYLOAD,2022-12-03 17:58:30,15.08844004,0.0001423,53.2186,144.9354,67.8499,292.2644,0.00014419,2.008e-05,0.0,0 STARLINK-3950,1 53264U 22086Y   22337.74895858  .00002008  00000-0  14419-3 0  9991,2 53264  53.2186 144.9354 0001423  67.8499 292.2644 15.08844004 21129,6917.868,95.437,540.7180000000002,538.749,0.0
53264.0,STARLINK-3950,PAYLOAD,2022-12-04 11:27:45,15.08832325,0.0001468,53.218,141.6637,70.4036,289.7114,2.4279e-06,-2.49e-06,0.0,0 STARLINK-3950,1 53264U 22086Y   22338.47761062 -.00000249  00000-0  24279-5 0  9994,2 53264  53.2180 141.6637 0001468  70.4036 289.7114 15.08832325 21235,6917.904,95.438,540.784,538.753,0.0
53264.0,STARLINK-3950,PAYLOAD,2022-12-04 17:49:17,15.08836675,0.0001485,53.218,140.4746,69.2145,290.9006,3.5466e-05,2.76e-06,0.0,0 STARLINK-3950,1 53264U 22086Y   22338.74256760  .00000276  00000-0  35466-4 0  9996,2 53264  53.2180 140.4746 0001485  69.2145 290.9006 15.08836675 21099,6917.891,95.438,540.783,538.7280000000002,0.0
53264.0,STARLINK-3950,PAYLOAD,2022-12-05 11:18:31,15.088452300000002,0.0001391,53.2188,137.2044,66.1374,293.9764,5.893600000000001e-05,6.5e-06,0.0,0 STARLINK-3950,1 53264U 22086Y   22339.47120214  .00000650  00000-0  58936-4 0  9994,2 53264  53.2188 137.2044 0001391  66.1374 293.9764 15.08845230 21202,6917.864000000001,95.437,540.692,538.7669999999998,0.0
53264.0,STARLINK-3950,PAYLOAD,2022-12-05 17:40:04,15.088491,0.0001401,53.2188,136.0152,66.1875,293.9264,9.7118e-05,1.258e-05,0.0,0 STARLINK-3950,1 53264U 22086Y   22339.73615880  .00001258  00000-0  97118-4 0  9991,2 53264  53.2188 136.0152 0001401  66.1875 293.9264 15.08849100 21426,6917.853,95.437,540.687,538.748,0.0
53264.0,STARLINK-3950,PAYLOAD,2022-12-06 11:09:19,15.08836497,0.0001435,53.2177,132.7439,64.316,295.798,4.7679e-05,4.71e-06,0.0,0 STARLINK-3950,1 53264U 22086Y   22340.46480389  .00000471  00000-0  47679-4 0  9990,2 53264  53.2177 132.7439 0001435  64.3160 295.7980 15.08836497 21351,6917.891,95.438,540.749,538.763,0.0
53264.0,STARLINK-3950,PAYLOAD,2022-12-06 17:30:51,15.088362300000002,0.0001617,53.2194,131.5554,72.5986,287.5183,-1.0498e-05,-4.55e-06,0.0,0 STARLINK-3950,1 53264U 22086Y   22340.72976459 -.00000455  00000-0 -10498-4 0  9990,2 53264  53.2194 131.5554 0001617  72.5986 287.5183 15.08836230 21577,6917.892,95.438,540.876,538.638,0.0
53264.0,STARLINK-3950,PAYLOAD,2022-12-07 12:35:30,15.0882995,0.0001555,53.2206,127.9877,74.4582,285.6582,-5.7422e-05,-1.201e-05,0.0,0 STARLINK-3950,1 53264U 22086Y   22341.52465842 -.00001201  00000-0 -57422-4 0  9996,2 53264  53.2206 127.9877 0001555  74.4582 285.6582 15.08829950 21519,6917.911,95.438,540.852,538.7,0.0
53264.0,STARLINK-3950,PAYLOAD,2022-12-07 18:57:02,15.08838728,0.0001553,53.2195,126.7977,71.2068,288.9093,7.0088e-06,-1.76e-06,0.0,0 STARLINK-3950,1 53264U 22086Y   22341.78961253 -.00000176  00000-0  70088-5 0  9994,2 53264  53.2195 126.7977 0001553  71.2068 288.9093 15.08838728 21736,6917.884,95.438,540.8240000000002,538.675,0.0
53264.0,STARLINK-3950,PAYLOAD,2022-12-08 02:53:57,15.08845466,0.0001583,53.2193,125.3109,65.9978,294.1179,3.5286e-05,2.74e-06,0.0,0 STARLINK-3950,1 53264U 22086Y   22342.12080781  .00000274  00000-0  35286-4 0  9999,2 53264  53.2193 125.3109 0001583  65.9978 294.1179 15.08845466 21606,6917.864000000001,95.437,540.8240000000002,538.634,0.0
53264.0,STARLINK-3950,PAYLOAD,2022-12-08 12:26:16,15.08846408,0.0001573,53.2191,123.5263,67.9615,292.1544,0.00018607,2.675e-05,0.0,0 STARLINK-3950,1 53264U 22086Y   22342.51824380  .00002675  00000-0  18607-3 0  9997,2 53264  53.2191 123.5263 0001573  67.9615 292.1544 15.08846408 21841,6917.861,95.437,540.814,538.638,0.0
53264.0,STARLINK-3950,PAYLOAD,2022-12-08 15:37:02,15.08847147,0.0001564999999999,53.2192,122.9325,67.999,292.1168,0.00026636,3.954e-05,0.0,0 STARLINK-3950,1 53264U 22086Y   22342.65072629  .00003954  00000-0  26636-3 0  9995,2 53264  53.2192 122.9325 0001565  67.9990 292.1168 15.08847147 21866,6917.859,95.437,540.806,538.641,0.0
53264.0,STARLINK-3950,PAYLOAD,2022-12-09 09:06:17,15.08821187,0.0001409999999999,53.2193,119.6635,359.1403,0.9586,-0.00041997,-6.962e-05,0.0,0 STARLINK-3950,1 53264U 22086Y   22343.37937357 -.00006962  00000-0 -41997-3 0  9994,2 53264  53.2193 119.6635 0001410 359.1403   0.9586 15.08821187 21975,6917.938,95.439,540.778,538.827,0.0
